{
  "norad_id": 60994,
  "name": "STARLINK-11267 [DTC]",
  "history": [
    {
      "epoch": "2026-03-28T14:51:25.699680Z",
      "apogee_km": 360.4266458487318,
      "perigee_km": 358.88611677002973,
      "latitude_deg": -3.3042112162619144e-05,
      "longitude_deg": 139.35469655587139,
      "height_km": 360.2081978195307,
      "semi_major_axis_km": 6737.7933813093805,
      "eccentricity": 0.00011432,
      "inclination_deg": 53.1574,
      "raan_deg": 188.2487,
      "arg_perigee_deg": 61.993,
      "mean_anomaly_deg": 298.1203,
      "mean_motion_rev_day": 15.69734591
    }
  ]
}