{"fetched_at":"2026-03-30T06:02:59Z","count":15439,"tles":[{"name":"STARLINK-11267 [DTC]","line1":"1 60994U 24158E   26087.61904745 -.00003608  00000+0 -24904-4 0  9998","line2":"2 60994  53.1574 188.2487 0001143  61.9930 298.1203 15.69734591 90565","category":"Starlink"}]}